{
  "type": "FeatureCollection",
  "features": [
    {
      "type": "Feature",
      "properties": {
        "norad_id": 66639,
        "name": "STARLINK-35908",
        "group": "last-30-days",
        "lat": -17.34902620870849,
        "lon": -149.7173126359928,
        "alt_km": 310.38685766690014,
        "timestamp": "2025-12-05T05:43:13.898036+00:00",
        "meta_object_name": "STARLINK-35908",
        "meta_object_id": "2025-271Y",
        "meta_epoch": "2025-12-04T02:34:25.508352",
        "meta_mean_motion": 15.84226755,
        "meta_eccentricity": 0.00097052,
        "meta_inclination": 53.1556,
        "meta_ra_of_asc_node": 229.5367,
        "meta_arg_of_pericenter": 335.6046,
        "meta_mean_anomaly": 24.4518,
        "meta_ephemeris_type": 0,
        "meta_classification_type": "U",
        "meta_norad_cat_id": 66639,
        "meta_element_set_no": 999,
        "meta_rev_at_epoch": 285,
        "meta_bstar": 0.0030756132,
        "meta_mean_motion_dot": 0.00777445,
        "meta_mean_motion_ddot": 0,
        "tle_line1": "1 66639U 25271Y   25338.10723968  .00777445  00000+0  30756-2 0  9990",
        "tle_line2": "2 66639  53.1556 229.5367 0009705 335.6046  24.4518 15.84226755  2853"
      },
      "geometry": {
        "type": "Point",
        "coordinates": [
          -149.7173126359928,
          -17.34902620870849
        ]
      }
    },
    {
      "type": "Feature",
      "properties": {
        "norad_id": 66640,
        "name": "STARLINK-35921",
        "group": "last-30-days",
        "lat": -27.94309575490107,
        "lon": -159.57755096461995,
        "alt_km": 326.4521418263148,
        "timestamp": "2025-12-05T05:43:13.898050+00:00",
        "meta_object_name": "STARLINK-35921",
        "meta_object_id": "2025-271Z",
        "meta_epoch": "2025-12-04T07:07:23.950272",
        "meta_mean_motion": 15.81318878,
        "meta_eccentricity": 0.0004963,
        "meta_inclination": 53.1562,
        "meta_ra_of_asc_node": 228.5854,
        "meta_arg_of_pericenter": 9.2257,
        "meta_mean_anomaly": 350.8856,
        "meta_ephemeris_type": 0,
        "meta_classification_type": "U",
        "meta_norad_cat_id": 66640,
        "meta_element_set_no": 999,
        "meta_rev_at_epoch": 288,
        "meta_bstar": 0.0015698,
        "meta_mean_motion_dot": 0.00327985,
        "meta_mean_motion_ddot": 0,
        "tle_line1": "1 66640U 25271Z   25338.29680498  .00327985  00000+0  15698-2 0  9990",
        "tle_line2": "2 66640  53.1562 228.5854 0004963   9.2257 350.8856 15.81318878  2880"
      },
      "geometry": {
        "type": "Point",
        "coordinates": [
          -159.57755096461995,
          -27.94309575490107
        ]
      }
    },
    {
      "type": "Feature",
      "properties": {
        "norad_id": 66641,
        "name": "STARLINK-35923",
        "group": "last-30-days",
        "lat": -21.51562672145626,
        "lon": -153.35385660604388,
        "alt_km": 334.9196758462813,
        "timestamp": "2025-12-05T05:43:13.898059+00:00",
        "meta_object_name": "STARLINK-35923",
        "meta_object_id": "2025-271AA",
        "meta_epoch": "2025-12-04T04:02:26.143296",
        "meta_mean_motion": 15.81718152,
        "meta_eccentricity": 0.00011943,
        "meta_inclination": 53.1554,
        "meta_ra_of_asc_node": 229.2043,
        "meta_arg_of_pericenter": 158.0841,
        "meta_mean_anomaly": 202.0234,
        "meta_ephemeris_type": 0,
        "meta_classification_type": "U",
        "meta_norad_cat_id": 66641,
        "meta_element_set_no": 999,
        "meta_rev_at_epoch": 286,
        "meta_bstar": -0.0043987252,
        "meta_mean_motion_dot": -0.00822461,
        "meta_mean_motion_ddot": 0,
        "tle_line1": "1 66641U 25271AA  25338.16835814 -.00822461  00000+0 -43987-2 0  9994",
        "tle_line2": "2 66641  53.1554 229.2043 0001194 158.0841 202.0234 15.81718152  2860"
      },
      "geometry": {
        "type": "Point",
        "coordinates": [
          -153.35385660604388,
          -21.51562672145626
        ]
      }
    },
    {
      "type": "Feature",
      "properties": {
        "norad_id": 66642,
        "name": "STARLINK-35926",
        "group": "last-30-days",
        "lat": -20.427320100053986,
        "lon": -152.37744295729973,
        "alt_km": 328.4757306200145,
        "timestamp": "2025-12-05T05:43:13.898069+00:00",
        "meta_object_name": "STARLINK-35926",
        "meta_object_id": "2025-271AB",
        "meta_epoch": "2025-12-04T16:11:02.031648",
        "meta_mean_motion": 15.81653484,
        "meta_eccentricity": 0.000827,
        "meta_inclination": 53.1555,
        "meta_ra_of_asc_node": 226.6722,
        "meta_arg_of_pericenter": 225.4105,
        "meta_mean_anomaly": 134.6244,
        "meta_ephemeris_type": 0,
        "meta_classification_type": "U",
        "meta_norad_cat_id": 66642,
        "meta_element_set_no": 999,
        "meta_rev_at_epoch": 290,
        "meta_bstar": 0.0028998,
        "meta_mean_motion_dot": 0.0063915,
        "meta_mean_motion_ddot": 0,
        "tle_line1": "1 66642U 25271AB  25338.67432907  .00639150  00000+0  28998-2 0  9991",
        "tle_line2": "2 66642  53.1555 226.6722 0008270 225.4105 134.6244 15.81653484  2903"
      },
      "geometry": {
        "type": "Point",
        "coordinates": [
          -152.37744295729973,
          -20.427320100053986
        ]
      }
    },
    {
      "type": "Feature",
      "properties": {
        "norad_id": 66643,
        "name": "STARLINK-35918",
        "group": "last-30-days",
        "lat": -23.21583032355578,
        "lon": -154.91388611158754,
        "alt_km": 328.0675690636708,
        "timestamp": "2025-12-05T05:43:13.898079+00:00",
        "meta_object_name": "STARLINK-35918",
        "meta_object_id": "2025-271AC",
        "meta_epoch": "2025-12-04T16:12:06.771168",
        "meta_mean_motion": 15.81782965,
        "meta_eccentricity": 0.0007458,
        "meta_inclination": 53.1555,
        "meta_ra_of_asc_node": 226.678,
        "meta_arg_of_pericenter": 210.1435,
        "meta_mean_anomaly": 149.916,
        "meta_ephemeris_type": 0,
        "meta_classification_type": "U",
        "meta_norad_cat_id": 66643,
        "meta_element_set_no": 999,
        "meta_rev_at_epoch": 294,
        "meta_bstar": 0.004293,
        "meta_mean_motion_dot": 0.00991522,
        "meta_mean_motion_ddot": 0,
        "tle_line1": "1 66643U 25271AC  25338.67507837  .00991522  00000+0  42930-2 0  9993",
        "tle_line2": "2 66643  53.1555 226.6780 0007458 210.1435 149.9160 15.81782965  2949"
      },
      "geometry": {
        "type": "Point",
        "coordinates": [
          -154.91388611158754,
          -23.21583032355578
        ]
      }
    },
    {
      "type": "Feature",
      "properties": {
        "norad_id": 66644,
        "name": "STARLINK-35938",
        "group": "last-30-days",
        "lat": -24.338918997363976,
        "lon": -155.9778095197447,
        "alt_km": 333.334305813205,
        "timestamp": "2025-12-05T05:43:13.898089+00:00",
        "meta_object_name": "STARLINK-35938",
        "meta_object_id": "2025-271AD",
        "meta_epoch": "2025-12-04T07:05:34.950624",
        "meta_mean_motion": 15.81341829,
        "meta_eccentricity": 0.0001477,
        "meta_inclination": 53.1561,
        "meta_ra_of_asc_node": 228.5764,
        "meta_arg_of_pericenter": 116.2756,
        "meta_mean_anomaly": 243.8419,
        "meta_ephemeris_type": 0,
        "meta_classification_type": "U",
        "meta_norad_cat_id": 66644,
        "meta_element_set_no": 999,
        "meta_rev_at_epoch": 288,
        "meta_bstar": -0.0022389,
        "meta_mean_motion_dot": -0.00430598,
        "meta_mean_motion_ddot": 0,
        "tle_line1": "1 66644U 25271AD  25338.29554341 -.00430598  00000+0 -22389-2 0  9993",
        "tle_line2": "2 66644  53.1561 228.5764 0001477 116.2756 243.8419 15.81341829  2881"
      },
      "geometry": {
        "type": "Point",
        "coordinates": [
          -155.9778095197447,
          -24.338918997363976
        ]
      }
    },
    {
      "type": "Feature",
      "properties": {
        "norad_id": 66645,
        "name": "SHENZHOU-22",
        "group": "last-30-days",
        "lat": 39.23274632734292,
        "lon": 174.61912599418125,
        "alt_km": 389.65302495542073,
        "timestamp": "2025-12-05T05:43:13.898099+00:00",
        "meta_object_name": "SHENZHOU-22",
        "meta_object_id": "2025-272A",
        "meta_epoch": "2025-12-04T15:25:24.990240",
        "meta_mean_motion": 15.58669844,
        "meta_eccentricity": 0.00099747,
        "meta_inclination": 41.4682,
        "meta_ra_of_asc_node": 65.8455,
        "meta_arg_of_pericenter": 328.5002,
        "meta_mean_anomaly": 31.5238,
        "meta_ephemeris_type": 0,
        "meta_classification_type": "U",
        "meta_norad_cat_id": 66645,
        "meta_element_set_no": 999,
        "meta_rev_at_epoch": 26279,
        "meta_bstar": 0.00047697443,
        "meta_mean_motion_dot": 0.00037639,
        "meta_mean_motion_ddot": 0,
        "tle_line1": "1 66645U 25272A   25338.64265035  .00037639  00000+0  47697-3 0  9990",
        "tle_line2": "2 66645  41.4682  65.8455 0009974 328.5002  31.5238 15.58669844262790"
      },
      "geometry": {
        "type": "Point",
        "coordinates": [
          174.61912599418125,
          39.23274632734292
        ]
      }
    }
  ]
}